start=new Date('2022-08-24T00:00:00.000Z').valueOf();
sats=[{"OBJECT_NAME":"STARLINK-3254","OBJECT_ID":"2021-125BA","RA_OF_ASC_NODE":"288.2425","CLASSIFICATION_TYPE":"U","REF_FRAME":"TEME","APOAPSIS":"541.063","PERIAPSIS":"538.483","ELEMENT_SET_NO":"999","MEAN_ELEMENT_THEORY":"SGP4","CENTER_NAME":"EARTH","TIME_SYSTEM":"UTC","BSTAR":"0.00011360000000","MEAN_MOTION_DDOT":"0.0000000000000","SEMIMAJOR_AXIS":"6917.908","INCLINATION":"53.2174","SITE":"AFWTR","GP_ID":"210861567","ARG_OF_PERICENTER":"47.1337","TLE_LINE1":"1 50204U 21125BA  22235.66337781  .00001520  00000-0  11360-3 0  9999","LAUNCH_DATE":"2021-12-18","RCS_SIZE":"LARGE","NORAD_CAT_ID":"50204","REV_AT_EPOCH":"4143","EPOCH":"2022-08-23T15:55:15.842784","DECAY_DATE":null,"PERIOD":"95.438","ECCENTRICITY":"0.00018650","EPHEMERIS_TYPE":"0","MEAN_MOTION":"15.08830989","FILE":"3545624","OBJECT_TYPE":"PAYLOAD","MEAN_ANOMALY":"312.9811","TLE_LINE2":"2 50204  53.2174 288.2425 0001865  47.1337 312.9811 15.08830989 41439","MEAN_MOTION_DOT":"0.00001520","COUNTRY_CODE":"US"},{"MEAN_MOTION_DDOT":"0.0000000000000","BSTAR":"0.00258110000000","SEMIMAJOR_AXIS":"6917.936","INCLINATION":"53.2161","SITE":"AFWTR","TIME_SYSTEM":"UTC","PERIAPSIS":"538.455","APOAPSIS":"541.146","REF_FRAME":"TEME","ELEMENT_SET_NO":"999","CENTER_NAME":"EARTH","MEAN_ELEMENT_THEORY":"SGP4","RA_OF_ASC_NODE":"257.0846","OBJECT_NAME":"STARLINK-3260","OBJECT_ID":"2021-125BB","CLASSIFICATION_TYPE":"U","COUNTRY_CODE":"US","MEAN_MOTION":"15.08821960","EPHEMERIS_TYPE":"0","FILE":"3545624","OBJECT_TYPE":"PAYLOAD","MEAN_MOTION_DOT":"0.00041010","MEAN_ANOMALY":"205.7964","TLE_LINE2":"2 50205  53.2161 257.0846 0001945  50.8366 205.7964 15.08821960  1308","EPOCH":"2022-08-23T22:00:01.999584","REV_AT_EPOCH":"130","NORAD_CAT_ID":"50205","DECAY_DATE":null,"PERIOD":"95.439","ECCENTRICITY":"0.00019450","GP_ID":"210861815","ARG_OF_PERICENTER":"50.8366","LAUNCH_DATE":"2021-12-18","TLE_LINE1":"1 50205U 21125BB  22235.91668981  .00041010  00000-0  25811-2 0  9990","RCS_SIZE":"LARGE"},{"RA_OF_ASC_NODE":"288.8176","OBJECT_ID":"2021-125BC","OBJECT_NAME":"STARLINK-3258","CLASSIFICATION_TYPE":"U","PERIAPSIS":"538.584","APOAPSIS":"540.915","REF_FRAME":"TEME","ELEMENT_SET_NO":"999","CENTER_NAME":"EARTH","MEAN_ELEMENT_THEORY":"SGP4","TIME_SYSTEM":"UTC","MEAN_MOTION_DDOT":"0.0000000000000","BSTAR":"0.00013321000000","SEMIMAJOR_AXIS":"6917.885","INCLINATION":"53.2172","SITE":"AFWTR","GP_ID":"210825053","ARG_OF_PERICENTER":"49.4609","LAUNCH_DATE":"2021-12-18","TLE_LINE1":"1 50206U 21125BC  22235.53456504  .00001833  00000-0  13321-3 0  9998","RCS_SIZE":"LARGE","REV_AT_EPOCH":"3928","EPOCH":"2022-08-23T12:49:46.419456","NORAD_CAT_ID":"50206","DECAY_DATE":null,"PERIOD":"95.438","ECCENTRICITY":"0.00016850","MEAN_MOTION":"15.08838587","EPHEMERIS_TYPE":"0","OBJECT_TYPE":"PAYLOAD","FILE":"3545070","MEAN_MOTION_DOT":"0.00001833","TLE_LINE2":"2 50206  53.2172 288.8176 0001685  49.4609 310.6529 15.08838587 39288","MEAN_ANOMALY":"310.6529","COUNTRY_CODE":"US"},{"CLASSIFICATION_TYPE":"U","RA_OF_ASC_NODE":"288.5026","OBJECT_ID":"2021-125BD","OBJECT_NAME":"STARLINK-3262","CENTER_NAME":"EARTH","MEAN_ELEMENT_THEORY":"SGP4","ELEMENT_SET_NO":"999","PERIAPSIS":"538.290","APOAPSIS":"541.273","REF_FRAME":"TEME","TIME_SYSTEM":"UTC","SITE":"AFWTR","INCLINATION":"53.2187","SEMIMAJOR_AXIS":"6917.917","MEAN_MOTION_DDOT":"0.0000000000000","BSTAR":"0.00014396000000","RCS_SIZE":"LARGE","LAUNCH_DATE":"2021-12-18","TLE_LINE1":"1 50207U 21125BD  22235.60449254  .00002003  00000-0  14396-3 0  9994","GP_ID":"210862312","ARG_OF_PERICENTER":"38.1040","ECCENTRICITY":"0.00021560","PERIOD":"95.438","DECAY_DATE":null,"EPOCH":"2022-08-23T14:30:28.155456","NORAD_CAT_ID":"50207","REV_AT_EPOCH":"3936","MEAN_MOTION_DOT":"0.00002003","MEAN_ANOMALY":"322.0105","TLE_LINE2":"2 50207  53.2187 288.5026 0002156  38.1040 322.0105 15.08828152 39367","FILE":"3545624","OBJECT_TYPE":"PAYLOAD","MEAN_MOTION":"15.08828152","EPHEMERIS_TYPE":"0","COUNTRY_CODE":"US"},{"TIME_SYSTEM":"UTC","INCLINATION":"53.2169","SITE":"AFETR","MEAN_MOTION_DDOT":"0.0000000000000","BSTAR":"0.00007649100000","SEMIMAJOR_AXIS":"6917.911","CLASSIFICATION_TYPE":"U","RA_OF_ASC_NODE":"218.2618","OBJECT_NAME":"STARLINK-3321","OBJECT_ID":"2022-001A","ELEMENT_SET_NO":"999","CENTER_NAME":"EARTH","MEAN_ELEMENT_THEORY":"SGP4","PERIAPSIS":"538.353","APOAPSIS":"541.198","REF_FRAME":"TEME","OBJECT_TYPE":"PAYLOAD","FILE":"3545624","MEAN_MOTION_DOT":"0.00000929","MEAN_ANOMALY":"308.3633","TLE_LINE2":"2 50803  53.2169 218.2618 0002056  51.7544 308.3633 15.08830053 35053","MEAN_MOTION":"15.08830053","EPHEMERIS_TYPE":"0","COUNTRY_CODE":"US","LAUNCH_DATE":"2022-01-06","TLE_LINE1":"1 50803U 22001A   22235.65508409  .00000929  00000-0  76491-4 0  9993","RCS_SIZE":"LARGE","GP_ID":"210861597","ARG_OF_PERICENTER":"51.7544","PERIOD":"95.438","ECCENTRICITY":"0.00020560","EPOCH":"2022-08-23T15:43:19.265376","NORAD_CAT_ID":"50803","REV_AT_EPOCH":"3505","DECAY_DATE":null},{"PERIOD":"95.438","ECCENTRICITY":"0.00019490","EPOCH":"2022-08-23T07:00:00.765792","NORAD_CAT_ID":"50804","REV_AT_EPOCH":"3513","DECAY_DATE":null,"LAUNCH_DATE":"2022-01-06","TLE_LINE1":"1 50804U 22001B   22235.29167553  .00001472  00000-0  11058-3 0  9996","RCS_SIZE":"LARGE","GP_ID":"210824834","ARG_OF_PERICENTER":"48.3435","COUNTRY_CODE":"US","OBJECT_TYPE":"PAYLOAD","FILE":"3545070","MEAN_MOTION_DOT":"0.00001472","TLE_LINE2":"2 50804  53.2179 209.9014 0001949  48.3435 311.7723 15.08835860 35131","MEAN_ANOMALY":"311.7723","MEAN_MOTION":"15.08835860","EPHEMERIS_TYPE":"0","ELEMENT_SET_NO":"999","CENTER_NAME":"EARTH","MEAN_ELEMENT_THEORY":"SGP4","PERIAPSIS":"538.410","APOAPSIS":"541.106","REF_FRAME":"TEME","CLASSIFICATION_TYPE":"U","RA_OF_ASC_NODE":"209.9014","OBJECT_ID":"2022-001B","OBJECT_NAME":"STARLINK-3323","INCLINATION":"53.2179","SITE":"AFETR","MEAN_MOTION_DDOT":"0.0000000000000","BSTAR":"0.00011058000000","SEMIMAJOR_AXIS":"6917.893","TIME_SYSTEM":"UTC"},{"GP_ID":"210825083","ARG_OF_PERICENTER":"61.0306","TLE_LINE1":"1 50805U 22001C   22235.35424087  .00001603  00000-0  11883-3 0  9994","LAUNCH_DATE":"2022-01-06","RCS_SIZE":"LARGE","NORAD_CAT_ID":"50805","REV_AT_EPOCH":"3514","EPOCH":"2022-08-23T08:30:06.411168","DECAY_DATE":null,"PERIOD":"95.438","ECCENTRICITY":"0.00017540","EPHEMERIS_TYPE":"0","MEAN_MOTION":"15.08832811","OBJECT_TYPE":"PAYLOAD","FILE":"3545070","MEAN_ANOMALY":"299.0862","TLE_LINE2":"2 50805  53.2171 209.6180 0001754  61.0306 299.0862 15.08832811 35144","MEAN_MOTION_DOT":"0.00001603","COUNTRY_CODE":"US","OBJECT_NAME":"STARLINK-3333","OBJECT_ID":"2022-001C","RA_OF_ASC_NODE":"209.6180","CLASSIFICATION_TYPE":"U","REF_FRAME":"TEME","PERIAPSIS":"538.554","APOAPSIS":"540.981","ELEMENT_SET_NO":"999","MEAN_ELEMENT_THEORY":"SGP4","CENTER_NAME":"EARTH","TIME_SYSTEM":"UTC","BSTAR":"0.00011883000000","MEAN_MOTION_DDOT":"0.0000000000000","SEMIMAJOR_AXIS":"6917.902","INCLINATION":"53.2171","SITE":"AFETR"},{"COUNTRY_CODE":"US","EPHEMERIS_TYPE":"0","MEAN_MOTION":"15.08835506","FILE":"3545070","OBJECT_TYPE":"PAYLOAD","TLE_LINE2":"2 50806  53.2160 209.6266 0002039  54.3516 305.7666 15.08835506 35144","MEAN_ANOMALY":"305.7666","MEAN_MOTION_DOT":"0.00001389","REV_AT_EPOCH":"3514","NORAD_CAT_ID":"50806","EPOCH":"2022-08-23T08:24:48.561984","DECAY_DATE":null,"PERIOD":"95.438","ECCENTRICITY":"0.00020390","GP_ID":"210824332","ARG_OF_PERICENTER":"54.3516","TLE_LINE1":"1 50806U 22001D   22235.35056206  .00001389  00000-0  10536-3 0  9994","LAUNCH_DATE":"2022-01-06","RCS_SIZE":"LARGE","BSTAR":"0.00010536000000","MEAN_MOTION_DDOT":"0.0000000000000","SEMIMAJOR_AXIS":"6917.894","INCLINATION":"53.2160","SITE":"AFETR","TIME_SYSTEM":"UTC","REF_FRAME":"TEME","APOAPSIS":"541.170","PERIAPSIS":"538.349","ELEMENT_SET_NO":"999","MEAN_ELEMENT_THEORY":"SGP4","CENTER_NAME":"EARTH","OBJECT_ID":"2022-001D","OBJECT_NAME":"STARLINK-3335","RA_OF_ASC_NODE":"209.6266","CLASSIFICATION_TYPE":"U"},{"DECAY_DATE":null,"REV_AT_EPOCH":"3519","EPOCH":"2022-08-23T16:00:32.321664","NORAD_CAT_ID":"50807","ECCENTRICITY":"0.00016610","PERIOD":"95.438","ARG_OF_PERICENTER":"58.0603","GP_ID":"210861098","RCS_SIZE":"LARGE","TLE_LINE1":"1 50807U 22001E   22235.66704076  .00001548  00000-0  11532-3 0  9998","LAUNCH_DATE":"2022-01-06","COUNTRY_CODE":"US","EPHEMERIS_TYPE":"0","MEAN_MOTION":"15.08837233","TLE_LINE2":"2 50807  53.2172 208.2298 0001661  58.0603 302.0550 15.08837233 35192","MEAN_ANOMALY":"302.0550","MEAN_MOTION_DOT":"0.00001548","FILE":"3545624","OBJECT_TYPE":"PAYLOAD","REF_FRAME":"TEME","PERIAPSIS":"538.605","APOAPSIS":"540.903","MEAN_ELEMENT_THEORY":"SGP4","CENTER_NAME":"EARTH","ELEMENT_SET_NO":"999","OBJECT_ID":"2022-001E","OBJECT_NAME":"STARLINK-3353","RA_OF_ASC_NODE":"208.2298","CLASSIFICATION_TYPE":"U","SEMIMAJOR_AXIS":"6917.889","BSTAR":"0.00011532000000","MEAN_MOTION_DDOT":"0.0000000000000","SITE":"AFETR","INCLINATION":"53.2172","TIME_SYSTEM":"UTC"},{"CENTER_NAME":"EARTH","MEAN_ELEMENT_THEORY":"SGP4","ELEMENT_SET_NO":"999","PERIAPSIS":"538.424","APOAPSIS":"541.117","REF_FRAME":"TEME","CLASSIFICATION_TYPE":"U","RA_OF_ASC_NODE":"210.5598","OBJECT_NAME":"STARLINK-3355","OBJECT_ID":"2022-001F","SITE":"AFETR","INCLINATION":"53.2159","SEMIMAJOR_AXIS":"6917.905","MEAN_MOTION_DDOT":"0.0000000000000","BSTAR":"0.00001803000000","TIME_SYSTEM":"UTC","ECCENTRICITY":"0.00019460","PERIOD":"95.438","DECAY_DATE":null,"EPOCH":"2022-08-23T03:28:02.829216","NORAD_CAT_ID":"50808","REV_AT_EPOCH":"3511","RCS_SIZE":"LARGE","LAUNCH_DATE":"2022-01-06","TLE_LINE1":"1 50808U 22001F   22235.14447719 -.00000001  00000-0  18030-4 0  9995","GP_ID":"210825334","ARG_OF_PERICENTER":"55.2568","COUNTRY_CODE":"US","MEAN_MOTION_DOT":"-0.00000001","MEAN_ANOMALY":"304.8607","TLE_LINE2":"2 50808  53.2159 210.5598 0001946  55.2568 304.8607 15.08831834 35118","FILE":"3545070","OBJECT_TYPE":"PAYLOAD","MEAN_MOTION":"15.08831834","EPHEMERIS_TYPE":"0"}];
